TISAT 1                 
1 36799U 10035E   26068.75703561  .00024554  00000+0  91005-3 0  9996
2 36799  98.0645   6.8512 0001343 159.3030 200.8262 15.27628633852505
STARLINK-31464          
1 59318U 24056Y   26066.77561499  .00001482  00000+0  63377-4 0  9995
2 59318  42.9986 241.3384 0001422 289.0593  71.0104 15.27583803110867
